STARLINK-36787          
1 68094U 26042AB  26086.66668981 -.00060756  00000+0 -39459-3 0  9991
2 68094  53.1593 104.8129 0001085  94.2361 293.8406 15.75263541  4936
STARLINK-36790          
1 68095U 26042AC  26086.83335647 -.00059663  00000+0 -38717-3 0  9992
2 68095  53.1594 103.7723 0001219 100.0941 256.6816 15.75274241  4958
STARLINK-36328          
1 68096U 26042AD  26086.50369902 -.00796908  00000+0 -49254-2 0  9995
2 68096  53.1583 105.2594 0000907 116.3541 243.7574 15.78521578  4891
STARLINK-36853          
1 68097U 26042AE  26086.75750165  .00411016  00000+0  19783-2 0  9994
2 68097  53.1580 103.9995 0003142  75.7895 284.3477 15.80984131  4932
GLOBAL-34               
1 68098U 26043A   26086.73325342  .00011422  00000+0  37117-3 0  9998
2 68098  42.0227 331.3316 0003923  47.3241 312.7927 15.31831597  3331
STARLINK-37022          
1 68101U 26044A   26086.88332044  .00146077  00000+0  96138-3 0  9990
2 68101  97.2843  47.9132 0001290  83.6188 276.5224 15.75242898  4343
STARLINK-37046          
1 68102U 26044B   26086.88226473  .00127554  00000+0  84200-3 0  9995
2 68102  97.2842  47.9151 0001933  97.7234 262.4251 15.75225771  4341
STARLINK-37018          
1 68103U 26044C   26086.88085340  .00123089  00000+0  81307-3 0  9996
2 68103  97.2842  47.9170 0001715 108.4615 251.6836 15.75223825  4341
STARLINK-37041          
1 68104U 26044D   26086.81626532  .00206281  00000+0  13470-2 0  9995
2 68104  97.2843  47.8518 0001553  98.9613 261.1828 15.75254175  4337
STARLINK-37021          
1 68105U 26044E   26086.87838326  .00264100  00000+0  17117-2 0  9994
2 68105  97.2842  47.9195 0001408  92.0854 268.0573 15.75265592  4349
STARLINK-37024          
1 68106U 26044F   26086.87732472  .00123056  00000+0  81301-3 0  9991
2 68106  97.2843  47.9212 0001742  97.8772 262.2691 15.75219279  4342
STARLINK-37005          
1 68107U 26044G   26086.81661936  .00337392  00000+0  21650-2 0  9992
2 68107  97.2840  47.8507 0002231 111.6693 248.4810 15.75293546  4334
