CCSDS_OMM_VERS = 2.0
CREATION_DATE  = 
ORIGINATOR     = 

OBJECT_NAME    = STARLINK-36787
OBJECT_ID      = 2026-042AB
CENTER_NAME    = EARTH
REF_FRAME      = TEME
TIME_SYSTEM    = UTC
MEAN_ELEMENT_THEORY = SGP/SGP4

EPOCH          = 2026-03-27T16:00:01.999584
MEAN_MOTION    = 15.75263541
ECCENTRICITY   = .0001085
INCLINATION    = 53.1593
RA_OF_ASC_NODE = 104.8129
ARG_OF_PERICENTER = 94.2361
MEAN_ANOMALY   = 293.8406

EPHEMERIS_TYPE = 0
CLASSIFICATION_TYPE = U
NORAD_CAT_ID   = 68094
ELEMENT_SET_NO = 999
REV_AT_EPOCH   = 493
BSTAR          = -.39459E-3
MEAN_MOTION_DOT = -.60756E-3
MEAN_MOTION_DDOT = 0

CCSDS_OMM_VERS = 2.0
CREATION_DATE  = 
ORIGINATOR     = 

OBJECT_NAME    = STARLINK-36790
OBJECT_ID      = 2026-042AC
CENTER_NAME    = EARTH
REF_FRAME      = TEME
TIME_SYSTEM    = UTC
MEAN_ELEMENT_THEORY = SGP/SGP4

EPOCH          = 2026-03-27T20:00:01.999008
MEAN_MOTION    = 15.75274241
ECCENTRICITY   = .0001219
INCLINATION    = 53.1594
RA_OF_ASC_NODE = 103.7723
ARG_OF_PERICENTER = 100.0941
MEAN_ANOMALY   = 256.6816

EPHEMERIS_TYPE = 0
CLASSIFICATION_TYPE = U
NORAD_CAT_ID   = 68095
ELEMENT_SET_NO = 999
REV_AT_EPOCH   = 495
BSTAR          = -.38717E-3
MEAN_MOTION_DOT = -.59663E-3
MEAN_MOTION_DDOT = 0

CCSDS_OMM_VERS = 2.0
CREATION_DATE  = 
ORIGINATOR     = 

OBJECT_NAME    = STARLINK-36328
OBJECT_ID      = 2026-042AD
CENTER_NAME    = EARTH
REF_FRAME      = TEME
TIME_SYSTEM    = UTC
MEAN_ELEMENT_THEORY = SGP/SGP4

EPOCH          = 2026-03-27T12:05:19.595328
MEAN_MOTION    = 15.78521578
ECCENTRICITY   = .0000907
INCLINATION    = 53.1583
RA_OF_ASC_NODE = 105.2594
ARG_OF_PERICENTER = 116.3541
MEAN_ANOMALY   = 243.7574

EPHEMERIS_TYPE = 0
CLASSIFICATION_TYPE = U
NORAD_CAT_ID   = 68096
ELEMENT_SET_NO = 999
REV_AT_EPOCH   = 489
BSTAR          = -.49254E-2
MEAN_MOTION_DOT = -.796908E-2
MEAN_MOTION_DDOT = 0

CCSDS_OMM_VERS = 2.0
CREATION_DATE  = 
ORIGINATOR     = 

OBJECT_NAME    = STARLINK-36853
OBJECT_ID      = 2026-042AE
CENTER_NAME    = EARTH
REF_FRAME      = TEME
TIME_SYSTEM    = UTC
MEAN_ELEMENT_THEORY = SGP/SGP4

EPOCH          = 2026-03-27T18:10:48.142560
MEAN_MOTION    = 15.80984131
ECCENTRICITY   = .0003142
INCLINATION    = 53.1580
RA_OF_ASC_NODE = 103.9995
ARG_OF_PERICENTER = 75.7895
MEAN_ANOMALY   = 284.3477

EPHEMERIS_TYPE = 0
CLASSIFICATION_TYPE = U
NORAD_CAT_ID   = 68097
ELEMENT_SET_NO = 999
REV_AT_EPOCH   = 493
BSTAR          = .19783E-2
MEAN_MOTION_DOT = .411016E-2
MEAN_MOTION_DDOT = 0

CCSDS_OMM_VERS = 2.0
CREATION_DATE  = 
ORIGINATOR     = 

OBJECT_NAME    = GLOBAL-34
OBJECT_ID      = 2026-043A
CENTER_NAME    = EARTH
REF_FRAME      = TEME
TIME_SYSTEM    = UTC
MEAN_ELEMENT_THEORY = SGP/SGP4

EPOCH          = 2026-03-27T17:35:53.095488
MEAN_MOTION    = 15.31831597
ECCENTRICITY   = .0003923
INCLINATION    = 42.0227
RA_OF_ASC_NODE = 331.3316
ARG_OF_PERICENTER = 47.3241
MEAN_ANOMALY   = 312.7927

EPHEMERIS_TYPE = 0
CLASSIFICATION_TYPE = U
NORAD_CAT_ID   = 68098
ELEMENT_SET_NO = 999
REV_AT_EPOCH   = 333
BSTAR          = .37117E-3
MEAN_MOTION_DOT = .11422E-3
MEAN_MOTION_DDOT = 0

CCSDS_OMM_VERS = 2.0
CREATION_DATE  = 
ORIGINATOR     = 

OBJECT_NAME    = STARLINK-37022
OBJECT_ID      = 2026-044A
CENTER_NAME    = EARTH
REF_FRAME      = TEME
TIME_SYSTEM    = UTC
MEAN_ELEMENT_THEORY = SGP/SGP4

EPOCH          = 2026-03-27T21:11:58.886016
MEAN_MOTION    = 15.75242898
ECCENTRICITY   = .000129
INCLINATION    = 97.2843
RA_OF_ASC_NODE = 47.9132
ARG_OF_PERICENTER = 83.6188
MEAN_ANOMALY   = 276.5224

EPHEMERIS_TYPE = 0
CLASSIFICATION_TYPE = U
NORAD_CAT_ID   = 68101
ELEMENT_SET_NO = 999
REV_AT_EPOCH   = 434
BSTAR          = .96138E-3
MEAN_MOTION_DOT = .146077E-2
MEAN_MOTION_DDOT = 0

CCSDS_OMM_VERS = 2.0
CREATION_DATE  = 
ORIGINATOR     = 

OBJECT_NAME    = STARLINK-37046
OBJECT_ID      = 2026-044B
CENTER_NAME    = EARTH
REF_FRAME      = TEME
TIME_SYSTEM    = UTC
MEAN_ELEMENT_THEORY = SGP/SGP4

EPOCH          = 2026-03-27T21:10:27.672672
MEAN_MOTION    = 15.75225771
ECCENTRICITY   = .0001933
INCLINATION    = 97.2842
RA_OF_ASC_NODE = 47.9151
ARG_OF_PERICENTER = 97.7234
MEAN_ANOMALY   = 262.4251

EPHEMERIS_TYPE = 0
CLASSIFICATION_TYPE = U
NORAD_CAT_ID   = 68102
ELEMENT_SET_NO = 999
REV_AT_EPOCH   = 434
BSTAR          = .842E-3
MEAN_MOTION_DOT = .127554E-2
MEAN_MOTION_DDOT = 0

CCSDS_OMM_VERS = 2.0
CREATION_DATE  = 
ORIGINATOR     = 

OBJECT_NAME    = STARLINK-37018
OBJECT_ID      = 2026-044C
CENTER_NAME    = EARTH
REF_FRAME      = TEME
TIME_SYSTEM    = UTC
MEAN_ELEMENT_THEORY = SGP/SGP4

EPOCH          = 2026-03-27T21:08:25.733760
MEAN_MOTION    = 15.75223825
ECCENTRICITY   = .0001715
INCLINATION    = 97.2842
RA_OF_ASC_NODE = 47.9170
ARG_OF_PERICENTER = 108.4615
MEAN_ANOMALY   = 251.6836

EPHEMERIS_TYPE = 0
CLASSIFICATION_TYPE = U
NORAD_CAT_ID   = 68103
ELEMENT_SET_NO = 999
REV_AT_EPOCH   = 434
BSTAR          = .81307E-3
MEAN_MOTION_DOT = .123089E-2
MEAN_MOTION_DDOT = 0

CCSDS_OMM_VERS = 2.0
CREATION_DATE  = 
ORIGINATOR     = 

OBJECT_NAME    = STARLINK-37041
OBJECT_ID      = 2026-044D
CENTER_NAME    = EARTH
REF_FRAME      = TEME
TIME_SYSTEM    = UTC
MEAN_ELEMENT_THEORY = SGP/SGP4

EPOCH          = 2026-03-27T19:35:25.323648
MEAN_MOTION    = 15.75254175
ECCENTRICITY   = .0001553
INCLINATION    = 97.2843
RA_OF_ASC_NODE = 47.8518
ARG_OF_PERICENTER = 98.9613
MEAN_ANOMALY   = 261.1828

EPHEMERIS_TYPE = 0
CLASSIFICATION_TYPE = U
NORAD_CAT_ID   = 68104
ELEMENT_SET_NO = 999
REV_AT_EPOCH   = 433
BSTAR          = .1347E-2
MEAN_MOTION_DOT = .206281E-2
MEAN_MOTION_DDOT = 0

CCSDS_OMM_VERS = 2.0
CREATION_DATE  = 
ORIGINATOR     = 

OBJECT_NAME    = STARLINK-37021
OBJECT_ID      = 2026-044E
CENTER_NAME    = EARTH
REF_FRAME      = TEME
TIME_SYSTEM    = UTC
MEAN_ELEMENT_THEORY = SGP/SGP4

EPOCH          = 2026-03-27T21:04:52.313664
MEAN_MOTION    = 15.75265592
ECCENTRICITY   = .0001408
INCLINATION    = 97.2842
RA_OF_ASC_NODE = 47.9195
ARG_OF_PERICENTER = 92.0854
MEAN_ANOMALY   = 268.0573

EPHEMERIS_TYPE = 0
CLASSIFICATION_TYPE = U
NORAD_CAT_ID   = 68105
ELEMENT_SET_NO = 999
REV_AT_EPOCH   = 434
BSTAR          = .17117E-2
MEAN_MOTION_DOT = .2641E-2
MEAN_MOTION_DDOT = 0

CCSDS_OMM_VERS = 2.0
CREATION_DATE  = 
ORIGINATOR     = 

OBJECT_NAME    = STARLINK-37024
OBJECT_ID      = 2026-044F
CENTER_NAME    = EARTH
REF_FRAME      = TEME
TIME_SYSTEM    = UTC
MEAN_ELEMENT_THEORY = SGP/SGP4

EPOCH          = 2026-03-27T21:03:20.855808
MEAN_MOTION    = 15.75219279
ECCENTRICITY   = .0001742
INCLINATION    = 97.2843
RA_OF_ASC_NODE = 47.9212
ARG_OF_PERICENTER = 97.8772
MEAN_ANOMALY   = 262.2691

EPHEMERIS_TYPE = 0
CLASSIFICATION_TYPE = U
NORAD_CAT_ID   = 68106
ELEMENT_SET_NO = 999
REV_AT_EPOCH   = 434
BSTAR          = .81301E-3
MEAN_MOTION_DOT = .123056E-2
MEAN_MOTION_DDOT = 0

CCSDS_OMM_VERS = 2.0
CREATION_DATE  = 
ORIGINATOR     = 

OBJECT_NAME    = STARLINK-37005
OBJECT_ID      = 2026-044G
CENTER_NAME    = EARTH
REF_FRAME      = TEME
TIME_SYSTEM    = UTC
MEAN_ELEMENT_THEORY = SGP/SGP4

EPOCH          = 2026-03-27T19:35:55.912704
MEAN_MOTION    = 15.75293546
ECCENTRICITY   = .0002231
INCLINATION    = 97.2840
RA_OF_ASC_NODE = 47.8507
ARG_OF_PERICENTER = 111.6693
MEAN_ANOMALY   = 248.4810

EPHEMERIS_TYPE = 0
CLASSIFICATION_TYPE = U
NORAD_CAT_ID   = 68107
ELEMENT_SET_NO = 999
REV_AT_EPOCH   = 433
BSTAR          = .2165E-2
MEAN_MOTION_DOT = .337392E-2
MEAN_MOTION_DDOT = 0

